ONEWEB-0446             
1 51640U 22012U   24261.43286421  .00000174  00000+0  46232-3 0  9999
2 51640  87.8983 163.2002 0002087  71.8418 288.2936 13.10370359125807
ONEWEB-0448             
1 51641U 22012V   24261.43783873 -.00000092  00000+0 -29917-3 0  9995
2 51641  87.8981 163.1996 0001728  77.8765 282.2556 13.10371039125773
ONEWEB-0449             
1 51642U 22012W   24261.44281472 -.00000290  00000+0 -86674-3 0  9998
2 51642  87.8977 163.1888 0001721  65.7043 294.4264 13.10370989125782
ONEWEB-0451             
1 51643U 22012X   24261.57306426 -.00004056  00000+0 -10481-1 0  9995
2 51643  87.9130 132.8580 0001569  75.8198 284.3108 13.17666348129693
ONEWEB-0456             
1 51646U 22012AA  24261.45278253 -.00000559  00000+0 -16370-2 0  9999
2 51646  87.8978 163.1555 0001900  81.8738 278.2604 13.10375316125829
ONEWEB-0457             
1 51647U 22012AB  24261.42955081  .00000357  00000+0  98767-3 0  9993
2 51647  87.8982 163.1905 0001914  66.2612 293.8716 13.10371186125825
ONEWEB-0458             
1 51648U 22012AC  24261.45111511 -.00000499  00000+0 -14645-2 0  9990
2 51648  87.8987 163.2029 0001597  72.9560 287.1742 13.10372978125782
